{"type": "FeatureCollection", "features": [ {"type": "Feature", "properties": {"norad_id": 41774, "name": "SKYSAT-C3", "group": "resource", "lat": -52.92572904361983, "lon": 20.45268421311636, "alt_km": 442.5758322366173, "timestamp": "2025-12-02T23:34:15.170989+00:00", "meta": {"OBJECT_NAME": "SKYSAT-C3", "OBJECT_ID": "2016-058E", "EPOCH": "2025-12-02T02:01:26.634720", "MEAN_MOTION": 15.43828804, "ECCENTRICITY": 0.00013941, "INCLINATION": 96.9318, "RA_OF_ASC_NODE": 10.3311, "ARG_OF_PERICENTER": 98.2621, "MEAN_ANOMALY": 261.8787, "EPHEMERIS_TYPE": 0, "CLASSIFICATION_TYPE": "U", "NORAD_CAT_ID": 41774, "ELEMENT_SET_NO": 999, "REV_AT_EPOCH": 51561, "BSTAR": 0.000469643, "MEAN_MOTION_DOT": 0.0002123, "MEAN_MOTION_DDOT": 0}, "tle": {"line1": "1 41774U 16058E   25336.08433605  .00021230  00000+0  46964-3 0  9990", "line2": "2 41774  96.9318  10.3311 0001394  98.2621 261.8787 15.43828804515615"}}, "geometry": {"type": "Point", "coordinates": [20.45268421311636, -52.92572904361983]}}, {"type": "Feature", "properties": {"norad_id": 41785, "name": "ALSAT 1B", "group": "resource", "lat": 7.3809859135015055, "lon": 170.20797801144957, "alt_km": 651.0232852423869, "timestamp": "2025-12-02T23:34:15.171000+00:00", "meta": {"OBJECT_NAME": "ALSAT 1B", "OBJECT_ID": "2016-059C", "EPOCH": "2025-12-02T11:22:16.585248", "MEAN_MOTION": 14.72057979, "ECCENTRICITY": 0.0010335, "INCLINATION": 97.782, "RA_OF_ASC_NODE": 348.7065, "ARG_OF_PERICENTER": 132.9674, "MEAN_ANOMALY": 227.2402, "EPHEMERIS_TYPE": 0, "CLASSIFICATION_TYPE": "U", "NORAD_CAT_ID": 41785, "ELEMENT_SET_NO": 999, "REV_AT_EPOCH": 49163, "BSTAR": 0.00011301, "MEAN_MOTION_DOT": 6.64e-06, "MEAN_MOTION_DDOT": 0}, "tle": {"line1": "1 41785U 16059C   25336.47380307  .00000664  00000+0  11301-3 0  9991", "line2": "2 41785  97.7820 348.7065 0010335 132.9674 227.2402 14.72057979491630"}}, "geometry": {"type": "Point", "coordinates": [170.20797801144957, 7.3809859135015055]}}, {"type": "Feature", "properties": {"norad_id": 41787, "name": "PATHFINDER 1", "group": "resource", "lat": 56.7194235815964, "lon": -31.867317483446726, "alt_km": 651.5999293282166, "timestamp": "2025-12-02T23:34:15.171028+00:00", "meta": {"OBJECT_NAME": "PATHFINDER 1", "OBJECT_ID": "2016-059E", "EPOCH": "2025-12-02T11:51:11.378880", "MEAN_MOTION": 14.67292138, "ECCENTRICITY": 0.0029938, "INCLINATION": 97.814, "RA_OF_ASC_NODE": 339.7431, "ARG_OF_PERICENTER": 112.3196, "MEAN_ANOMALY": 248.1187, "EPHEMERIS_TYPE": 0, "CLASSIFICATION_TYPE": "U", "NORAD_CAT_ID": 41787, "ELEMENT_SET_NO": 999, "REV_AT_EPOCH": 49086, "BSTAR": 0.0002009, "MEAN_MOTION_DOT": 1.094e-05, "MEAN_MOTION_DDOT": 0}, "tle": {"line1": "1 41787U 16059E   25336.49388170  .00001094  00000+0  20090-3 0  9994", "line2": "2 41787  97.8140 339.7431 0029938 112.3196 248.1187 14.67292138490863"}}, "geometry": {"type": "Point", "coordinates": [-31.867317483446726, 56.7194235815964]}}, {"type": "Feature", "properties": {"norad_id": 41790, "name": "SCATSAT 1", "group": "resource", "lat": 2.788356424197197, "lon": 33.130856038006364, "alt_km": 671.1797839229448, "timestamp": "2025-12-02T23:34:15.171040+00:00", "meta": {"OBJECT_NAME": "SCATSAT 1", "OBJECT_ID": "2016-059H", "EPOCH": "2025-12-02T04:04:18.892704", "MEAN_MOTION": 14.78875526, "ECCENTRICITY": 0.00557394, "INCLINATION": 98.1482, "RA_OF_ASC_NODE": 32.708, "ARG_OF_PERICENTER": 161.5626, "MEAN_ANOMALY": 198.7622, "EPHEMERIS_TYPE": 0, "CLASSIFICATION_TYPE": "U", "NORAD_CAT_ID": 41790, "ELEMENT_SET_NO": 999, "REV_AT_EPOCH": 7246, "BSTAR": 0.00029277794, "MEAN_MOTION_DOT": 2.157e-05, "MEAN_MOTION_DDOT": 0}, "tle": {"line1": "1 41790U 16059H   25336.16966311  .00002157  00000+0  29278-3 0  9999", "line2": "2 41790  98.1482  32.7080 0055739 161.5626 198.7622 14.78875526 72468"}}, "geometry": {"type": "Point", "coordinates": [33.130856038006364, 2.788356424197197]}}, {"type": "Feature", "properties": {"norad_id": 41875, "name": "GOKTURK 1A", "group": "resource", "lat": -64.7633062230835, "lon": -112.83829153745104, "alt_km": 692.2193704255769, "timestamp": "2025-12-02T23:34:15.171050+00:00", "meta": {"OBJECT_NAME": "GOKTURK 1A", "OBJECT_ID": "2016-073A", "EPOCH": "2025-12-02T12:22:49.301760", "MEAN_MOTION": 14.62759687, "ECCENTRICITY": 0.0001242, "INCLINATION": 98.1431, "RA_OF_ASC_NODE": 229.0173, "ARG_OF_PERICENTER": 81.8915, "MEAN_ANOMALY": 278.2427, "EPHEMERIS_TYPE": 0, "CLASSIFICATION_TYPE": "U", "NORAD_CAT_ID": 41875, "ELEMENT_SET_NO": 999, "REV_AT_EPOCH": 48007, "BSTAR": 0.00015986, "MEAN_MOTION_DOT": 7.68e-06, "MEAN_MOTION_DDOT": 0}, "tle": {"line1": "1 41875U 16073A   25336.51584840  .00000768  00000+0  15986-3 0  9998", "line2": "2 41875  98.1431 229.0173 0001242  81.8915 278.2427 14.62759687480074"}}, "geometry": {"type": "Point", "coordinates": [-112.83829153745104, -64.7633062230835]}}, {"type": "Feature", "properties": {"norad_id": 41877, "name": "RESOURCESAT-2A", "group": "resource", "lat": -13.247600972142338, "lon": 48.97877281037015, "alt_km": 823.8091314868852, "timestamp": "2025-12-02T23:34:15.171060+00:00", "meta": {"OBJECT_NAME": "RESOURCESAT-2A", "OBJECT_ID": "2016-074A", "EPOCH": "2025-12-02T11:48:33.818112", "MEAN_MOTION": 14.21592371, "ECCENTRICITY": 0.0001175, "INCLINATION": 98.7768, "RA_OF_ASC_NODE": 46.4072, "ARG_OF_PERICENTER": 306.3736, "MEAN_ANOMALY": 53.7332, "EPHEMERIS_TYPE": 0, "CLASSIFICATION_TYPE": "U", "NORAD_CAT_ID": 41877, "ELEMENT_SET_NO": 999, "REV_AT_EPOCH": 46635, "BSTAR": 0.00012813, "MEAN_MOTION_DOT": 2.36e-06, "MEAN_MOTION_DDOT": 0}, "tle": {"line1": "1 41877U 16074A   25336.49205808  .00000236  00000+0  12813-3 0  9998", "line2": "2 41877  98.7768  46.4072 0001175 306.3736  53.7332 14.21592371466351"}}, "geometry": {"type": "Point", "coordinates": [48.97877281037015, -13.247600972142338]}}, {"type": "Feature", "properties": {"norad_id": 41948, "name": "CARTOSAT-2D", "group": "resource", "lat": 10.034808473655108, "lon": -144.04732853637765, "alt_km": 506.677249852306, "timestamp": "2025-12-02T23:34:15.171071+00:00", "meta": {"OBJECT_NAME": "CARTOSAT-2D", "OBJECT_ID": "2017-008A", "EPOCH": "2025-12-02T11:45:40.630176", "MEAN_MOTION": 15.19329744, "ECCENTRICITY": 0.0004804, "INCLINATION": 97.4405, "RA_OF_ASC_NODE": 34.1428, "ARG_OF_PERICENTER": 201.1395, "MEAN_ANOMALY": 158.9642, "EPHEMERIS_TYPE": 0, "CLASSIFICATION_TYPE": "U", "NORAD_CAT_ID": 41948, "ELEMENT_SET_NO": 999, "REV_AT_EPOCH": 48771, "BSTAR": 2.3379e-06, "MEAN_MOTION_DOT": -1.8e-07, "MEAN_MOTION_DDOT": 0}, "tle": {"line1": "1 41948U 17008A   25336.49005359 -.00000018  00000+0  23379-5 0  9994", "line2": "2 41948  97.4405  34.1428 0004804 201.1395 158.9642 15.19329744487713"}}, "geometry": {"type": "Point", "coordinates": [-144.04732853637765, 10.034808473655108]}}, {"type": "Feature", "properties": {"norad_id": 42063, "name": "SENTINEL-2B", "group": "resource", "lat": -7.9277787133536535, "lon": 50.76826585465684, "alt_km": 793.1441850747387, "timestamp": "2025-12-02T23:34:15.171081+00:00", "meta": {"OBJECT_NAME": "SENTINEL-2B", "OBJECT_ID": "2017-013A", "EPOCH": "2025-12-02T11:51:35.788608", "MEAN_MOTION": 14.3080935, "ECCENTRICITY": 0.0001124, "INCLINATION": 98.5728, "RA_OF_ASC_NODE": 49.0835, "ARG_OF_PERICENTER": 98.729, "MEAN_ANOMALY": 261.402, "EPHEMERIS_TYPE": 0, "CLASSIFICATION_TYPE": "U", "NORAD_CAT_ID": 42063, "ELEMENT_SET_NO": 999, "REV_AT_EPOCH": 45651, "BSTAR": 0.00010265, "MEAN_MOTION_DOT": 2.25e-06, "MEAN_MOTION_DDOT": 0}, "tle": {"line1": "1 42063U 17013A   25336.49416422  .00000225  00000+0  10265-3 0  9993", "line2": "2 42063  98.5728  49.0835 0001124  98.7290 261.4020 14.30809350456517"}}, "geometry": {"type": "Point", "coordinates": [50.76826585465684, -7.9277787133536535]}}, {"type": "Feature", "properties": {"norad_id": 42767, "name": "CARTOSAT-2E", "group": "resource", "lat": 77.69926662375278, "lon": -2.2345456477711076, "alt_km": 502.4296107482496, "timestamp": "2025-12-02T23:34:15.171091+00:00", "meta": {"OBJECT_NAME": "CARTOSAT-2E", "OBJECT_ID": "2017-036C", "EPOCH": "2025-12-02T16:53:45.021120", "MEAN_MOTION": 15.19156375, "ECCENTRICITY": 0.0002438, "INCLINATION": 97.4584, "RA_OF_ASC_NODE": 34.4186, "ARG_OF_PERICENTER": 299.2179, "MEAN_ANOMALY": 60.8811, "EPHEMERIS_TYPE": 0, "CLASSIFICATION_TYPE": "U", "NORAD_CAT_ID": 42767, "ELEMENT_SET_NO": 999, "REV_AT_EPOCH": 46831, "BSTAR": 0.00035609, "MEAN_MOTION_DOT": 7.419e-05, "MEAN_MOTION_DDOT": 0}, "tle": {"line1": "1 42767U 17036C   25336.70399330  .00007419  00000+0  35609-3 0  9992", "line2": "2 42767  97.4584  34.4186 0002438 299.2179  60.8811 15.19156375468316"}}, "geometry": {"type": "Point", "coordinates": [-2.2345456477711076, 77.69926662375278]}}, {"type": "Feature", "properties": {"norad_id": 42920, "name": "FORMOSAT-5", "group": "resource", "lat": 6.174911730160346, "lon": 50.59517816294461, "alt_km": 718.7412893704432, "timestamp": "2025-12-02T23:34:15.171101+00:00", "meta": {"OBJECT_NAME": "FORMOSAT-5", "OBJECT_ID": "2017-049A", "EPOCH": "2025-12-02T11:57:25.915104", "MEAN_MOTION": 14.50995128, "ECCENTRICITY": 0.0010362, "INCLINATION": 98.2464, "RA_OF_ASC_NODE": 51.0199, "ARG_OF_PERICENTER": 329.672, "MEAN_ANOMALY": 30.3875, "EPHEMERIS_TYPE": 0, "CLASSIFICATION_TYPE": "U", "NORAD_CAT_ID": 42920, "ELEMENT_SET_NO": 999, "REV_AT_EPOCH": 43815, "BSTAR": 9.804e-05, "MEAN_MOTION_DOT": 3.44e-06, "MEAN_MOTION_DDOT": 0}, "tle": {"line1": "1 42920U 17049A   25336.49821661  .00000344  00000+0  98040-4 0  9999", "line2": "2 42920  98.2464  51.0199 0010362 329.6720  30.3875 14.50995128438159"}}, "geometry": {"type": "Point", "coordinates": [50.59517816294461, 6.174911730160346]}}]}